{
  "type": "FeatureCollection",
  "features": [
    {
      "type": "Feature",
      "properties": {
        "norad_id": 66418,
        "name": "HULIANWANG DIGUI 13G",
        "group": "last-30-days",
        "lat": 28.66927610696749,
        "lon": 77.09687100219224,
        "alt_km": 822.6757352807163,
        "timestamp": "2025-12-07T09:35:08.569279+00:00",
        "meta_object_name": "HULIANWANG DIGUI 13G",
        "meta_object_id": "2025-258G",
        "meta_epoch": "2025-12-06T22:48:15.691968",
        "meta_mean_motion": 14.21900282,
        "meta_eccentricity": 0.00109178,
        "meta_inclination": 49.9964,
        "meta_ra_of_asc_node": 286.3158,
        "meta_arg_of_pericenter": 336.7333,
        "meta_mean_anomaly": 23.3084,
        "meta_ephemeris_type": 0,
        "meta_classification_type": "U",
        "meta_norad_cat_id": 66418,
        "meta_element_set_no": 999,
        "meta_rev_at_epoch": 383,
        "meta_bstar": 0.00030227469,
        "meta_mean_motion_dot": 5.13e-06,
        "meta_mean_motion_ddot": 0,
        "tle_line1": "1 66418U 25258G   25340.95018162  .00000513  00000+0  30227-3 0  9998",
        "tle_line2": "2 66418  49.9964 286.3158 0010917 336.7333  23.3084 14.21900282  3830"
      },
      "geometry": {
        "type": "Point",
        "coordinates": [
          77.09687100219224,
          28.66927610696749
        ]
      }
    },
    {
      "type": "Feature",
      "properties": {
        "norad_id": 66419,
        "name": "HULIANWANG DIGUI 13H",
        "group": "last-30-days",
        "lat": 22.331006762761263,
        "lon": 84.23357007381223,
        "alt_km": 821.6204190362141,
        "timestamp": "2025-12-07T09:35:08.569289+00:00",
        "meta_object_name": "HULIANWANG DIGUI 13H",
        "meta_object_id": "2025-258H",
        "meta_epoch": "2025-12-06T22:45:46.309824",
        "meta_mean_motion": 14.22013491,
        "meta_eccentricity": 0.00082545,
        "meta_inclination": 50.0017,
        "meta_ra_of_asc_node": 286.3008,
        "meta_arg_of_pericenter": 339.9329,
        "meta_mean_anomaly": 20.1258,
        "meta_ephemeris_type": 0,
        "meta_classification_type": "U",
        "meta_norad_cat_id": 66419,
        "meta_element_set_no": 999,
        "meta_rev_at_epoch": 383,
        "meta_bstar": 0.00028418037,
        "meta_mean_motion_dot": 4.74e-06,
        "meta_mean_motion_ddot": 0,
        "tle_line1": "1 66419U 25258H   25340.94845266  .00000474  00000+0  28418-3 0  9996",
        "tle_line2": "2 66419  50.0017 286.3008 0008254 339.9329  20.1258 14.22013491  3834"
      },
      "geometry": {
        "type": "Point",
        "coordinates": [
          84.23357007381223,
          22.331006762761263
        ]
      }
    },
    {
      "type": "Feature",
      "properties": {
        "norad_id": 66420,
        "name": "HULIANWANG DIGUI 13J",
        "group": "last-30-days",
        "lat": 16.959033981018347,
        "lon": 89.56959290133791,
        "alt_km": 821.5802752113059,
        "timestamp": "2025-12-07T09:35:08.569299+00:00",
        "meta_object_name": "HULIANWANG DIGUI 13J",
        "meta_object_id": "2025-258J",
        "meta_epoch": "2025-12-06T22:43:47.062272",
        "meta_mean_motion": 14.22178849,
        "meta_eccentricity": 0.00077946,
        "meta_inclination": 50.0037,
        "meta_ra_of_asc_node": 286.3028,
        "meta_arg_of_pericenter": 347.21,
        "meta_mean_anomaly": 12.8614,
        "meta_ephemeris_type": 0,
        "meta_classification_type": "U",
        "meta_norad_cat_id": 66420,
        "meta_element_set_no": 999,
        "meta_rev_at_epoch": 382,
        "meta_bstar": 0.00028316979,
        "meta_mean_motion_dot": 4.73e-06,
        "meta_mean_motion_ddot": 0,
        "tle_line1": "1 66420U 25258J   25340.94707248  .00000473  00000+0  28317-3 0  9992",
        "tle_line2": "2 66420  50.0037 286.3028 0007794 347.2100  12.8614 14.22178849  3829"
      },
      "geometry": {
        "type": "Point",
        "coordinates": [
          89.56959290133791,
          16.959033981018347
        ]
      }
    },
    {
      "type": "Feature",
      "properties": {
        "norad_id": 66421,
        "name": "CZ-12 R/B",
        "group": "last-30-days",
        "lat": 47.29557329565358,
        "lon": -13.388203017140079,
        "alt_km": 786.3567450146465,
        "timestamp": "2025-12-07T09:35:08.569309+00:00",
        "meta_object_name": "CZ-12 R/B",
        "meta_object_id": "2025-258K",
        "meta_epoch": "2025-12-06T21:36:07.292160",
        "meta_mean_motion": 14.42319892,
        "meta_eccentricity": 0.00645248,
        "meta_inclination": 49.9961,
        "meta_ra_of_asc_node": 283.2878,
        "meta_arg_of_pericenter": 228.4128,
        "meta_mean_anomaly": 131.1251,
        "meta_ephemeris_type": 0,
        "meta_classification_type": "U",
        "meta_norad_cat_id": 66421,
        "meta_element_set_no": 999,
        "meta_rev_at_epoch": 387,
        "meta_bstar": 0.00011616929,
        "meta_mean_motion_dot": 2.25e-06,
        "meta_mean_motion_ddot": 0,
        "tle_line1": "1 66421U 25258K   25340.90008440  .00000225  00000+0  11617-3 0  9997",
        "tle_line2": "2 66421  49.9961 283.2878 0064524 228.4128 131.1251 14.42319892  3870"
      },
      "geometry": {
        "type": "Point",
        "coordinates": [
          -13.388203017140079,
          47.29557329565358
        ]
      }
    },
    {
      "type": "Feature",
      "properties": {
        "norad_id": 66422,
        "name": "STARLINK-35617",
        "group": "last-30-days",
        "lat": 7.8811106065295,
        "lon": -109.6627323171576,
        "alt_km": 443.0118007404935,
        "timestamp": "2025-12-07T09:35:08.569320+00:00",
        "meta_object_name": "STARLINK-35617",
        "meta_object_id": "2025-259A",
        "meta_epoch": "2025-12-07T00:00:02.000160",
        "meta_mean_motion": 15.40661177,
        "meta_eccentricity": 0.00012093,
        "meta_inclination": 43.0009,
        "meta_ra_of_asc_node": 81.1817,
        "meta_arg_of_pericenter": 271.0136,
        "meta_mean_anomaly": 199.5474,
        "meta_ephemeris_type": 0,
        "meta_classification_type": "U",
        "meta_norad_cat_id": 66422,
        "meta_element_set_no": 999,
        "meta_rev_at_epoch": 535,
        "meta_bstar": 0.00052450909,
        "meta_mean_motion_dot": 0.0002164,
        "meta_mean_motion_ddot": 0,
        "tle_line1": "1 66422U 25259A   25341.00002315  .00021640  00000+0  52451-3 0  9991",
        "tle_line2": "2 66422  43.0009  81.1817 0001209 271.0136 199.5474 15.40661177  5356"
      },
      "geometry": {
        "type": "Point",
        "coordinates": [
          -109.6627323171576,
          7.8811106065295
        ]
      }
    },
    {
      "type": "Feature",
      "properties": {
        "norad_id": 66423,
        "name": "STARLINK-35618",
        "group": "last-30-days",
        "lat": -0.5667595464378604,
        "lon": -100.54235690220908,
        "alt_km": 443.96644968702367,
        "timestamp": "2025-12-07T09:35:08.569332+00:00",
        "meta_object_name": "STARLINK-35618",
        "meta_object_id": "2025-259B",
        "meta_epoch": "2025-12-07T00:00:02.000160",
        "meta_mean_motion": 15.40660279,
        "meta_eccentricity": 0.00015349,
        "meta_inclination": 43.001,
        "meta_ra_of_asc_node": 81.1513,
        "meta_arg_of_pericenter": 268.359,
        "meta_mean_anomaly": 214.64,
        "meta_ephemeris_type": 0,
        "meta_classification_type": "U",
        "meta_norad_cat_id": 66423,
        "meta_element_set_no": 999,
        "meta_rev_at_epoch": 535,
        "meta_bstar": 0.00046654015,
        "meta_mean_motion_dot": 0.00019208,
        "meta_mean_motion_ddot": 0,
        "tle_line1": "1 66423U 25259B   25341.00002315  .00019208  00000+0  46654-3 0  9997",
        "tle_line2": "2 66423  43.0010  81.1513 0001534 268.3590 214.6400 15.40660279  5356"
      },
      "geometry": {
        "type": "Point",
        "coordinates": [
          -100.54235690220908,
          -0.5667595464378604
        ]
      }
    },
    {
      "type": "Feature",
      "properties": {
        "norad_id": 66424,
        "name": "STARLINK-35588",
        "group": "last-30-days",
        "lat": -9.006461676668655,
        "lon": -91.38725491298975,
        "alt_km": 444.72795859382313,
        "timestamp": "2025-12-07T09:35:08.569343+00:00",
        "meta_object_name": "STARLINK-35588",
        "meta_object_id": "2025-259C",
        "meta_epoch": "2025-12-07T00:00:02.000160",
        "meta_mean_motion": 15.40654824,
        "meta_eccentricity": 0.0001542,
        "meta_inclination": 43.0009,
        "meta_ra_of_asc_node": 81.1218,
        "meta_arg_of_pericenter": 266.1427,
        "meta_mean_anomaly": 229.3065,
        "meta_ephemeris_type": 0,
        "meta_classification_type": "U",
        "meta_norad_cat_id": 66424,
        "meta_element_set_no": 999,
        "meta_rev_at_epoch": 535,
        "meta_bstar": 0.00053663955,
        "meta_mean_motion_dot": 0.00022145,
        "meta_mean_motion_ddot": 0,
        "tle_line1": "1 66424U 25259C   25341.00002315  .00022145  00000+0  53664-3 0  9991",
        "tle_line2": "2 66424  43.0009  81.1218 0001542 266.1427 229.3065 15.40654824  5350"
      },
      "geometry": {
        "type": "Point",
        "coordinates": [
          -91.38725491298975,
          -9.006461676668655
        ]
      }
    }
  ]
}